{
    "links": {
        "self": "http://www.neowsapp.com/rest/v1/neo/3838788?api_key=iIulBulltgU6a56xZRHN4H3l9WmuAYTsLGpBGhQ2"
    },
    "id": "3838788",
    "neo_reference_id": "3838788",
    "name": "(2019 CY5)",
    "designation": "2019 CY5",
    "nasa_jpl_url": "http://ssd.jpl.nasa.gov/sbdb.cgi?sstr=3838788",
    "absolute_magnitude_h": 26.1,
    "estimated_diameter": {
        "kilometers": {
            "estimated_diameter_min": 0.0160160338,
            "estimated_diameter_max": 0.0358129403
        },
        "meters": {
            "estimated_diameter_min": 16.0160337979,
            "estimated_diameter_max": 35.8129403019
        },
        "miles": {
            "estimated_diameter_min": 0.0099518989,
            "estimated_diameter_max": 0.0222531225
        },
        "feet": {
            "estimated_diameter_min": 52.5460443254,
            "estimated_diameter_max": 117.4965270602
        }
    },
    "is_potentially_hazardous_asteroid": false,
    "close_approach_data": [
        {
            "close_approach_date": "2019-02-11",
            "close_approach_date_full": "2019-Feb-11 20:54",
            "epoch_date_close_approach": 1549918440000,
            "relative_velocity": {
                "kilometers_per_second": "8.1554168647",
                "kilometers_per_hour": "29359.5007129282",
                "miles_per_hour": "18242.8519846526"
            },
            "miss_distance": {
                "astronomical": "0.0025247973",
                "lunar": "0.9821461497",
                "kilometers": "377704.298261751",
                "miles": "234694.5680081238"
            },
            "orbiting_body": "Moon"
        },
        {
            "close_approach_date": "2019-02-12",
            "close_approach_date_full": "2019-Feb-12 07:59",
            "epoch_date_close_approach": 1549958340000,
            "relative_velocity": {
                "kilometers_per_second": "8.5212374657",
                "kilometers_per_hour": "30676.4548765611",
                "miles_per_hour": "19061.1560870499"
            },
            "miss_distance": {
                "astronomical": "0.0036480242",
                "lunar": "1.4190814138",
                "kilometers": "545736.650028454",
                "miles": "339105.0298185052"
            },
            "orbiting_body": "Earth"
        }
    ],
    "orbital_data": {
        "orbit_id": "2",
        "orbit_determination_date": "2019-02-19 06:42:50",
        "first_observation_date": "2019-02-15",
        "last_observation_date": "2019-02-19",
        "data_arc_in_days": 4,
        "observations_used": 39,
        "orbit_uncertainty": "8",
        "minimum_orbit_intersection": ".00206895",
        "jupiter_tisserand_invariant": "3.635",
        "epoch_osculation": "2458531.5",
        "eccentricity": ".5222226037245327",
        "semi_major_axis": "2.018405116957938",
        "inclination": "5.803535526844497",
        "ascending_node_longitude": "141.195181661683",
        "orbital_period": "1047.396057008108",
        "perihelion_distance": ".9643483414092436",
        "perihelion_argument": "340.4893806863437",
        "aphelion_distance": "3.072461892506632",
        "perihelion_time": "2458510.015845618224",
        "mean_anomaly": "7.384308472128886",
        "mean_motion": ".3437095238150331",
        "equinox": "J2000",
        "orbit_class": {
            "orbit_class_type": "APO",
            "orbit_class_description": "Near-Earth asteroid orbits which cross the Earth’s orbit similar to that of 1862 Apollo",
            "orbit_class_range": "a (semi-major axis) > 1.0 AU; q (perihelion) < 1.017 AU"
        }
    },
    "is_sentry_object": false
}